IRIDIUM 112             
1 41925U 17003J   25077.61489454  .00000219  00000+0  71247-4 0  9990
2 41925  86.3906 278.6531 0002197  90.8073 269.3374 14.34214336427977
IRIDIUM 111             
1 41926U 17003K   25077.67196955 -.00000046  00000+0 -23489-4 0  9993
2 41926  86.3909 278.6897 0001907  86.0442 274.0972 14.34217415427968
IRIDIUM 123             
1 42804U 17039B   25077.83295011  .00000731  00000+0  25406-3 0  9998
2 42804  86.4049 183.9268 0002074  89.3683 270.7751 14.34218882404680
IRIDIUM 115             
1 42806U 17039D   25077.75361100  .00000055  00000+0  10357-4 0  9993
2 42806  86.4552 152.4505 0002153  78.1586 281.9856 14.43267852408575
IRIDIUM 118             
1 42807U 17039E   25077.72512604  .00000088  00000+0  24455-4 0  9998
2 42807  86.4047 183.9719 0002110  98.3548 261.7887 14.34216011404663
IRIDIUM 117             
1 42808U 17039F   25077.81392104  .00000882  00000+0  30794-3 0  9994
2 42808  86.4044 183.8967 0002120  88.3674 271.7765 14.34218972404704
